[
    {
        "Altitude(m)": 611967.1629299667,
        "Argument of Periapsis(deg)": 0.0,
        "Eccentricity": 0.0,
        "Inclination(deg)": 60.0,
        "Latitude(deg)": 59.140113069501545,
        "Longitude(deg)": -148.90777146420265,
        "Mean Anomaly(deg)": 98.18179999999997,
        "RAAN(deg)": 205.0,
        "Satellite Name": "Test1 908",
        "Satellite Number": 908,
        "Semi-Major Axis(m)": 6980739.136638005,
        "Time(s)": 0
    },
    {
        "Altitude(m)": 611934.3620858622,
        "Argument of Periapsis(deg)": 0.00010418945913296404,
        "Eccentricity": 0.0,
        "Inclination(deg)": 60.0,
        "Latitude(deg)": 58.98647325417603,
        "Longitude(deg)": -147.78452837755162,
        "Mean Anomaly(deg)": 98.80190614546183,
        "RAAN(deg)": 204.99957995086024,
        "Satellite Name": "Test1 908",
        "Satellite Number": 908,
        "Semi-Major Axis(m)": 6980739.136638005,
        "Time(s)": 10
    }
]